KAITUO 1B               
1 40912U 15049P   18044.99477659  .00001132  00000-0  58106-4 0  9999
2 40912  97.4509  54.0862 0017351  80.9984 331.3813 15.18438466132972
TIANWANG 1C (TW-1C)     
1 40926U 15051B   18045.52142676  .00006765  00000-0  13544-3 0  9998
2 40926  97.2010  88.5010 0011047  17.4967  93.4749 15.47017617134330
TIANWANG 1B (TW-1B)     
1 40927U 15051C   18045.38473619  .00006303  00000-0  13150-3 0  9998
2 40927  97.2094  88.2639 0011399  28.1600  98.7066 15.45832107134236
TIANWANG 1A (TW-1A)     
1 40928U 15051D   18044.85974537  .00002719  00000-0  74802-4 0  9994
2 40928  97.2011  81.2428 0013926  51.6332 304.7636 15.37947745133818
LAPAN-A2 (IO-86)        
1 40931U 15052B   18044.85651242  .00000507  00000-0 -18500-4 0  9991
2 40931   5.9997 309.5284 0013064  60.9381 299.2018 14.76563426128747
LQSAT                   
1 40958U 15057A   18045.55446921  .00000014  00000-0  99630-5 0  9995
2 40958  97.9531 121.3234 0018630  15.1139 345.0618 14.73015307126799
CHUBUSAT-2              
1 41338U 16012B   18044.93624013  .00000371  00000-0  22310-4 0  9997
2 41338  31.0046  16.6821 0013884 292.5054  67.4112 14.99918183109318
CHUBUSAT-3              
1 41339U 16012C   18045.29826664  .00000308  00000-0  17237-4 0  9996
2 41339  31.0106  13.1549 0013773 302.5210  57.4084 15.00109801109351
OUFTI-1                 
1 41458U 16025C   18045.19457245  .00000747  00000-0  43608-4 0  9994
2 41458  98.1524 101.4036 0170771 199.3815 160.0864 15.04236159 98948
E-ST@R-II               
1 41459U 16025D   18044.84813265  .00000437  00000-0  27643-4 0  9991
2 41459  98.1520 100.9258 0171394 201.2594 158.1429 15.03988738 98888
AAUSAT 4                
1 41460U 16025E   18045.40310970  .00001606  00000-0  87728-4 0  9990
2 41460  98.1488 101.8348 0163735 196.0222 163.5782 15.05280270 99018
NUSAT 1 (LO-87)         
1 41557U 16033B   18045.32615802  .00001594  00000-0  61038-4 0  9991
2 41557  97.4441 129.7491 0012719 227.4598 132.5568 15.27988372 95391
BEESAT-4                
1 41619U 16040W   18044.66003707  .00001359  00000-0  63025-4 0  9996
2 41619  97.4317 109.4425 0010338 308.1799  51.8505 15.21736271 79309
PRATHAM                 
1 41783U 16059A   18044.88500710  .00000059  00000-0  20770-4 0  9994
2 41783  98.1349 108.3355 0034787 121.8083 238.6514 14.62899943 73932
ALSAT 1N                
1 41789U 16059G   18045.49255925  .00000057  00000-0  20000-4 0  9997
2 41789  98.1351 109.9100 0029809 112.4879 247.9496 14.64126276 74065
NAYIF-1 (EO-88)         
1 42017U 17008BX  18045.53045846  .00001683  00000-0  72355-4 0  9997
2 42017  97.4642 111.2513 0008163  92.0385 268.1787 15.24030603 55381
LILACSAT-1              
1 42725U 98067ME  18045.50210857  .00015391  00000-0  16654-3 0  9990
2 42725  51.6361 261.1861 0005707 134.8030 225.3429 15.63779813 41289
MAX VALIER SAT          
1 42778U 17036P   18045.17025891  .00000893  00000-0  43280-4 0  9997
2 42778  97.4205 106.8378 0013995 136.0703 224.1648 15.21029756 35808
FOX-1B (AO-91)          
1 43017U 17073E   18045.40330731  .00001030  00000-0  87203-4 0  9990
2 43017  97.7000 341.7246 0259375 311.5438  46.3784 14.77900574 12978
FOX-1D (AO-92)          
1 43137U 18004AC  18044.87219029  .00000976  00000-0  45316-4 0  9991
2 43137  97.5507 107.1483 0010049 163.0861 197.0712 15.22420808  4953
